OBJECT_NAME,OBJECT_ID,EPOCH,MEAN_MOTION,ECCENTRICITY,INCLINATION,RA_OF_ASC_NODE,ARG_OF_PERICENTER,MEAN_ANOMALY,EPHEMERIS_TYPE,CLASSIFICATION_TYPE,NORAD_CAT_ID,ELEMENT_SET_NO,REV_AT_EPOCH,BSTAR,MEAN_MOTION_DOT,MEAN_MOTION_DDOT
ALOS-2,2014-029A,2026-06-17T22:49:06.214368,14.79469713,.00016292,97.9226,266.1029,89.8393,270.3005,0,U,39766,999,65169,.91673956E-4,.633E-5,0
KAZEOSAT 2,2014-033A,2026-06-17T23:18:14.468256,14.85470515,.00077894,97.5398,8.5411,326.6860,33.3865,0,U,40010,999,64907,.75394217E-4,.6E-5,0
HODOYOSHI-4,2014-033B,2026-06-17T23:24:37.278144,14.88127233,.0022514,97.5446,353.7594,305.8213,54.0912,0,U,40011,999,64892,.46042396E-4,.373E-5,0
DEIMOS-2,2014-033D,2026-06-17T22:04:50.020032,14.93725540,.00013708,97.5822,43.3831,50.0278,310.1062,0,U,40013,999,63783,.11159786E-3,.1127E-4,0
HODOYOSHI-3,2014-033F,2026-06-17T22:13:27.753024,14.85389902,.00326208,97.6418,331.9366,354.8890,5.1988,0,U,40015,999,64773,.96808484E-4,.788E-5,0
SPOT 7,2014-034A,2026-06-17T22:26:20.345280,14.60958216,.00012321,98.0629,231.4074,91.3556,268.7786,0,U,40053,999,63724,.35999744E-4,.131E-5,0
SKYSAT-B,2014-037D,2026-06-17T20:45:20.050560,14.88029515,.00041832,98.3839,127.8683,278.9727,81.1014,0,U,40072,999,64606,.12236556E-3,.1062E-4,0
WORLDVIEW-3 (WV-3),2014-048A,2026-06-17T21:48:18.516960,14.85022988,.00009263,97.8567,243.7315,24.9889,335.1371,0,U,40115,999,64201,.84340239E-4,.666E-5,0
GAOFEN-2,2014-049A,2026-06-17T22:04:12.991584,14.80896688,.00061563,98.0109,233.1259,224.6530,135.4187,0,U,40118,999,63934,-.6532099E-5,-.104E-5,0
YAOGAN-21,2014-053A,2026-06-17T22:46:58.888416,15.26381694,.00100115,97.1468,209.1517,91.5865,268.6521,0,U,40143,999,65507,.1844336E-3,.4734E-4,0
YAOGAN-22,2014-063A,2026-06-17T20:53:00.755232,13.15531055,.00063563,100.7725,320.1547,183.7268,176.3797,0,U,40275,999,55990,-.42663167E-4,-.63E-6,0
ASNARO,2014-070A,2026-06-17T22:47:22.155936,15.19441299,.00056799,97.3455,245.0429,163.2252,196.9172,0,U,40298,999,64412,.23406819E-3,.4896E-4,0
YAOGAN-24,2014-072A,2026-06-17T23:07:05.145600,14.76224522,.00125213,98.1493,306.3076,261.0010,98.9782,0,U,40310,999,62383,.11322936E-3,.731E-5,0
CBERS 4,2014-079A,2026-06-17T22:38:24.391104,14.35508601,.00018223,98.3530,225.7512,63.3673,296.7699,0,U,40336,999,60406,-.10440397E-4,-.72E-6,0
YAOGAN-26,2014-088A,2026-06-17T23:22:56.189280,15.47373751,.00059258,97.0643,169.1643,66.2924,293.8948,0,U,40362,999,63782,.29471269E-3,.15002E-3,0
SMAP,2015-003A,2026-06-17T23:15:03.003264,14.63367186,.00013348,98.1275,176.0522,97.0195,263.1159,0,U,40376,999,60773,.70570027E-4,.318E-5,0
KOMPSAT-3A,2015-014A,2026-06-17T22:48:14.724288,15.54024203,.00565402,97.6887,160.3683,171.7161,188.5040,0,U,40536,999,62193,.30839454E-3,.21315E-3,0
SENTINEL-2A,2015-028A,2026-06-17T21:56:09.013344,14.30814629,.00011026,98.5687,243.7552,89.7477,270.3833,0,U,40697,999,57383,-.3220594E-4,-.128E-5,0
GAOFEN-8,2015-030A,2026-06-17T22:18:03.606624,15.45982709,.00086372,97.6898,2.3440,184.0258,176.0923,0,U,40701,999,61156,.42954244E-3,.20901E-3,0
CARBONITE 1 (CBNT-1),2015-032D,2026-06-17T22:11:09.254688,14.83590698,.00131298,97.6501,346.9595,295.6391,64.3467,0,U,40718,999,58945,.22896488E-3,.1839E-4,0
YAOGAN-27,2015-040A,2026-06-17T22:34:46.080768,13.16070120,.00076823,100.1148,155.2908,208.5890,151.4804,0,U,40878,999,51776,.56166976E-3,.171E-5,0
GAOFEN-9 01,2015-047A,2026-06-17T22:33:17.966592,14.82885115,.00284402,97.6274,204.6004,135.4366,224.9142,0,U,40894,999,58030,.10392936E-3,.797E-5,0
YAOGAN-28,2015-064A,2026-06-17T23:28:08.229792,15.27430387,.00107049,97.3081,307.2229,180.5258,179.5972,0,U,41026,999,59080,.22611823E-3,.6007E-4,0
YAOGAN-29,2015-069A,2026-06-17T22:04:44.552640,14.83087374,.00026273,98.0021,197.5539,53.7656,306.3800,0,U,41038,999,57073,.86056775E-4,.647E-5,0
KENT RIDGE 1,2015-077B,2026-06-16T21:38:07.994688,15.23131198,.00082355,14.9789,268.1169,234.6113,125.3439,0,U,41167,999,58105,.11247934E-3,.35E-4,0
GAOFEN-4,2015-083A,2026-06-17T22:01:35.189760,1.00268332,.00043908,0.3597,83.7227,115.4615,143.0569,0,U,41194,999,3853,0,-.34E-5,0
JASON-3,2016-002A,2026-06-17T22:25:55.376544,12.87628094,.00085075,66.0403,124.2634,272.7593,87.2452,0,U,41240,999,48734,.46736869E-4,-.5E-6,0
SENTINEL-3A,2016-011A,2026-06-17T22:01:42.327264,14.26740193,.00014094,98.6249,236.2911,101.7809,258.3530,0,U,41335,999,53816,.56225124E-4,.92E-6,0
ZIYUAN 3-02 (ZY 3-02),2016-033A,2026-06-17T23:29:37.175136,15.21487715,.0011151,97.3834,244.7392,286.5397,73.4614,0,U,41556,999,55810,.18591896E-3,.4118E-4,0
CARTOSAT-2C,2016-040A,2026-06-17T23:35:01.158720,15.19194542,.00099842,97.4478,228.9501,127.9179,232.2960,0,U,41599,999,55383,.13814052E-3,.2841E-4,0
