ALOS-2                  
1 39766U 14029A   26168.95076637  .00000633  00000+0  91674-4 0  9995
2 39766  97.9226 266.1029 0001629  89.8393 270.3005 14.79469713651697
KAZEOSAT 2              
1 40010U 14033A   26168.97100079  .00000600  00000+0  75394-4 0  9999
2 40010  97.5398   8.5411 0007789 326.6860  33.3865 14.85470515649073
HODOYOSHI-4             
1 40011U 14033B   26168.97543146  .00000373  00000+0  46042-4 0  9991
2 40011  97.5446 353.7594 0022514 305.8213  54.0912 14.88127233648924
DEIMOS-2                
1 40013U 14033D   26168.92002338  .00001127  00000+0  11160-3 0  9991
2 40013  97.5822  43.3831 0001370  50.0278 310.1062 14.93725540637838
HODOYOSHI-3             
1 40015U 14033F   26168.92601566  .00000788  00000+0  96808-4 0  9996
2 40015  97.6418 331.9366 0032620 354.8890   5.1988 14.85389902647735
SPOT 7                  
1 40053U 14034A   26168.93495770  .00000131  00000+0  36000-4 0  9998
2 40053  98.0629 231.4074 0001232  91.3556 268.7786 14.60958216637244
SKYSAT-B                
1 40072U 14037D   26168.86481540  .00001062  00000+0  12237-3 0  9993
2 40072  98.3839 127.8683 0004183 278.9727  81.1014 14.88029515646068
WORLDVIEW-3 (WV-3)      
1 40115U 14048A   26168.90854765  .00000666  00000+0  84340-4 0  9995
2 40115  97.8567 243.7315 0000926  24.9889 335.1371 14.85022988642010
GAOFEN-2                
1 40118U 14049A   26168.91959481 -.00000104  00000+0 -65321-5 0  9999
2 40118  98.0109 233.1259 0006156 224.6530 135.4187 14.80896688639340
YAOGAN-21               
1 40143U 14053A   26168.94929269  .00004734  00000+0  18443-3 0  9998
2 40143  97.1468 209.1517 0010011  91.5865 268.6521 15.26381694655079
YAOGAN-22               
1 40275U 14063A   26168.87014763 -.00000063  00000+0 -42663-4 0  9996
2 40275 100.7725 320.1547 0006356 183.7268 176.3797 13.15531055559906
ASNARO                  
1 40298U 14070A   26168.94956199  .00004896  00000+0  23407-3 0  9995
2 40298  97.3455 245.0429 0005679 163.2252 196.9172 15.19441299644129
YAOGAN-24               
1 40310U 14072A   26168.96325400  .00000731  00000+0  11323-3 0  9997
2 40310  98.1493 306.3076 0012521 261.0010  98.9782 14.76224522623830
CBERS 4                 
1 40336U 14079A   26168.94333786 -.00000072  00000+0 -10440-4 0  9996
2 40336  98.3530 225.7512 0001822  63.3673 296.7699 14.35508601604068
YAOGAN-26               
1 40362U 14088A   26168.97426145  .00015002  00000+0  29471-3 0  9990
2 40362  97.0643 169.1643 0005925  66.2924 293.8948 15.47373751637828
SMAP                    
1 40376U 15003A   26168.96878476  .00000318  00000+0  70570-4 0  9991
2 40376  98.1275 176.0522 0001334  97.0195 263.1159 14.63367186607734
KOMPSAT-3A              
1 40536U 15014A   26168.95017042  .00021315  00000+0  30839-3 0  9997
2 40536  97.6887 160.3683 0056540 171.7161 188.5040 15.54024203621939
SENTINEL-2A             
1 40697U 15028A   26168.91399321 -.00000128  00000+0 -32206-4 0  9991
2 40697  98.5687 243.7552 0001102  89.7477 270.3833 14.30814629573835
GAOFEN-8                
1 40701U 15030A   26168.92920841  .00020901  00000+0  42954-3 0  9997
2 40701  97.6898   2.3440 0008637 184.0258 176.0923 15.45982709611563
CARBONITE 1 (CBNT-1)    
1 40718U 15032D   26168.92441267  .00001839  00000+0  22896-3 0  9999
2 40718  97.6501 346.9595 0013129 295.6391  64.3467 14.83590698589456
YAOGAN-27               
1 40878U 15040A   26168.94081112  .00000171  00000+0  56167-3 0  9992
2 40878 100.1148 155.2908 0007682 208.5890 151.4804 13.16070120517769
GAOFEN-9 01             
1 40894U 15047A   26168.93979128  .00000797  00000+0  10393-3 0  9994
2 40894  97.6274 204.6004 0028440 135.4366 224.9142 14.82885115580307
YAOGAN-28               
1 41026U 15064A   26168.97787303  .00006007  00000+0  22612-3 0  9994
2 41026  97.3081 307.2229 0010704 180.5258 179.5972 15.27430387590801
YAOGAN-29               
1 41038U 15069A   26168.91996010  .00000647  00000+0  86057-4 0  9991
2 41038  98.0021 197.5539 0002627  53.7656 306.3800 14.83087374570733
KENT RIDGE 1            
1 41167U 15077B   26167.90148142  .00003500  00000+0  11248-3 0  9996
2 41167  14.9789 268.1169 0008235 234.6113 125.3439 15.23131198581050
GAOFEN-4                
1 41194U 15083A   26168.91776840 -.00000340  00000+0  00000+0 0  9997
2 41194   0.3597  83.7227 0004390 115.4615 143.0569  1.00268332 38535
JASON-3                 
1 41240U 16002A   26168.93466871 -.00000050  00000+0  46737-4 0  9993
2 41240  66.0403 124.2634 0008507 272.7593  87.2452 12.87628094487340
SENTINEL-3A             
1 41335U 16011A   26168.91785101  .00000092  00000+0  56225-4 0  9994
2 41335  98.6249 236.2911 0001409 101.7809 258.3530 14.26740193538166
ZIYUAN 3-02 (ZY 3-02)   
1 41556U 16033A   26168.97890249  .00004118  00000+0  18592-3 0  9996
2 41556  97.3834 244.7392 0011151 286.5397  73.4614 15.21487715558102
CARTOSAT-2C             
1 41599U 16040A   26168.98265230  .00002841  00000+0  13814-3 0  9991
2 41599  97.4478 228.9501 0009984 127.9179 232.2960 15.19194542553831
